[{"OBJECT_NAME":"SKYSAT-A","OBJECT_ID":"2013-066C","EPOCH":"2026-04-05T13:30:08.500896","MEAN_MOTION":15.12561739,"ECCENTRICITY":0.00211258,"INCLINATION":97.389,"RA_OF_ASC_NODE":147.2664,"ARG_OF_PERICENTER":201.6188,"MEAN_ANOMALY":158.4154,"EPHEMERIS_TYPE":0,"CLASSIFICATION_TYPE":"U","NORAD_CAT_ID":39418,"ELEMENT_SET_NO":999,"REV_AT_EPOCH":67750,"BSTAR":0.00027928994,"MEAN_MOTION_DOT":4.832e-5,"MEAN_MOTION_DDOT":0},{"OBJECT_NAME":"SKYSAT-B","OBJECT_ID":"2014-037D","EPOCH":"2026-04-05T10:18:56.632896","MEAN_MOTION":14.87835582,"ECCENTRICITY":0.00062955,"INCLINATION":98.3775,"RA_OF_ASC_NODE":50.2889,"ARG_OF_PERICENTER":142.7628,"MEAN_ANOMALY":217.4024,"EPHEMERIS_TYPE":0,"CLASSIFICATION_TYPE":"U","NORAD_CAT_ID":40072,"ELEMENT_SET_NO":999,"REV_AT_EPOCH":63514,"BSTAR":0.00028857064,"MEAN_MOTION_DOT":2.577e-5,"MEAN_MOTION_DDOT":0},{"OBJECT_NAME":"SKYSAT-C1","OBJECT_ID":"2016-040C","EPOCH":"2026-04-05T08:48:19.968192","MEAN_MOTION":15.35104314,"ECCENTRICITY":6.026e-5,"INCLINATION":96.9644,"RA_OF_ASC_NODE":131.0677,"ARG_OF_PERICENTER":326.579,"MEAN_ANOMALY":33.5417,"EPHEMERIS_TYPE":0,"CLASSIFICATION_TYPE":"U","NORAD_CAT_ID":41601,"ELEMENT_SET_NO":999,"REV_AT_EPOCH":54669,"BSTAR":0.00036517433,"MEAN_MOTION_DOT":0.00012372,"MEAN_MOTION_DDOT":0},{"OBJECT_NAME":"SKYSAT-C4","OBJECT_ID":"2016-058B","EPOCH":"2026-04-05T12:27:32.846688","MEAN_MOTION":15.46402302,"ECCENTRICITY":0.00030201,"INCLINATION":96.9246,"RA_OF_ASC_NODE":120.4257,"ARG_OF_PERICENTER":124.5066,"MEAN_ANOMALY":235.647,"EPHEMERIS_TYPE":0,"CLASSIFICATION_TYPE":"U","NORAD_CAT_ID":41771,"ELEMENT_SET_NO":999,"REV_AT_EPOCH":53423,"BSTAR":0.00037982116,"MEAN_MOTION_DOT":0.00018723,"MEAN_MOTION_DDOT":0},{"OBJECT_NAME":"SKYSAT-C5","OBJECT_ID":"2016-058C","EPOCH":"2026-04-05T13:37:48.934272","MEAN_MOTION":15.34256221,"ECCENTRICITY":0.00023065,"INCLINATION":97.0554,"RA_OF_ASC_NODE":139.4609,"ARG_OF_PERICENTER":169.5194,"MEAN_ANOMALY":190.6098,"EPHEMERIS_TYPE":0,"CLASSIFICATION_TYPE":"U","NORAD_CAT_ID":41772,"ELEMENT_SET_NO":999,"REV_AT_EPOCH":53261,"BSTAR":0.00030564146,"MEAN_MOTION_DOT":0.00010065,"MEAN_MOTION_DDOT":0},{"OBJECT_NAME":"SKYSAT-C2","OBJECT_ID":"2016-058D","EPOCH":"2026-04-05T14:35:19.054752","MEAN_MOTION":15.40481449,"ECCENTRICITY":0.00019902,"INCLINATION":97.024,"RA_OF_ASC_NODE":120.4966,"ARG_OF_PERICENTER":351.8881,"MEAN_ANOMALY":8.2333,"EPHEMERIS_TYPE":0,"CLASSIFICATION_TYPE":"U","NORAD_CAT_ID":41773,"ELEMENT_SET_NO":999,"REV_AT_EPOCH":53387,"BSTAR":0.00037492635,"MEAN_MOTION_DOT":0.0001513,"MEAN_MOTION_DDOT":0},{"OBJECT_NAME":"SKYSAT-C3","OBJECT_ID":"2016-058E","EPOCH":"2026-04-05T13:29:37.569696","MEAN_MOTION":15.49636783,"ECCENTRICITY":0.00024317,"INCLINATION":96.9122,"RA_OF_ASC_NODE":129.3098,"ARG_OF_PERICENTER":110.5152,"MEAN_ANOMALY":249.6362,"EPHEMERIS_TYPE":0,"CLASSIFICATION_TYPE":"U","NORAD_CAT_ID":41774,"ELEMENT_SET_NO":999,"REV_AT_EPOCH":53485,"BSTAR":0.00047164171,"MEAN_MOTION_DOT":0.00026059,"MEAN_MOTION_DDOT":0},{"OBJECT_NAME":"SKYSAT-C11","OBJECT_ID":"2017-068A","EPOCH":"2026-04-05T09:17:59.121312","MEAN_MOTION":15.54222813,"ECCENTRICITY":5.492e-5,"INCLINATION":97.4258,"RA_OF_ASC_NODE":241.302,"ARG_OF_PERICENTER":166.111,"MEAN_ANOMALY":194.0158,"EPHEMERIS_TYPE":0,"CLASSIFICATION_TYPE":"U","NORAD_CAT_ID":42987,"ELEMENT_SET_NO":999,"REV_AT_EPOCH":47192,"BSTAR":0.00056690993,"MEAN_MOTION_DOT":0.0003696,"MEAN_MOTION_DDOT":0},{"OBJECT_NAME":"SKYSAT-C10","OBJECT_ID":"2017-068B","EPOCH":"2026-04-05T14:59:17.609568","MEAN_MOTION":15.33368234,"ECCENTRICITY":0.00010337,"INCLINATION":97.4392,"RA_OF_ASC_NODE":231.8836,"ARG_OF_PERICENTER":110.0175,"MEAN_ANOMALY":250.1178,"EPHEMERIS_TYPE":0,"CLASSIFICATION_TYPE":"U","NORAD_CAT_ID":42988,"ELEMENT_SET_NO":999,"REV_AT_EPOCH":47123,"BSTAR":0.00041223917,"MEAN_MOTION_DOT":0.00013222,"MEAN_MOTION_DDOT":0},{"OBJECT_NAME":"SKYSAT-C9","OBJECT_ID":"2017-068C","EPOCH":"2026-04-05T15:00:37.262592","MEAN_MOTION":15.39810989,"ECCENTRICITY":0.00092662,"INCLINATION":97.4316,"RA_OF_ASC_NODE":232.1539,"ARG_OF_PERICENTER":45.3142,"MEAN_ANOMALY":314.8858,"EPHEMERIS_TYPE":0,"CLASSIFICATION_TYPE":"U","NORAD_CAT_ID":42989,"ELEMENT_SET_NO":999,"REV_AT_EPOCH":47158,"BSTAR":0.00043760817,"MEAN_MOTION_DOT":0.00017309,"MEAN_MOTION_DDOT":0},{"OBJECT_NAME":"SKYSAT-C8","OBJECT_ID":"2017-068D","EPOCH":"2026-04-05T15:17:02.482656","MEAN_MOTION":15.35535036,"ECCENTRICITY":0.00010446,"INCLINATION":97.441,"RA_OF_ASC_NODE":231.429,"ARG_OF_PERICENTER":94.5672,"MEAN_ANOMALY":265.5691,"EPHEMERIS_TYPE":0,"CLASSIFICATION_TYPE":"U","NORAD_CAT_ID":42990,"ELEMENT_SET_NO":999,"REV_AT_EPOCH":47117,"BSTAR":0.00043474345,"MEAN_MOTION_DOT":0.00014945,"MEAN_MOTION_DDOT":0},{"OBJECT_NAME":"SKYSAT-C7","OBJECT_ID":"2017-068E","EPOCH":"2026-04-05T15:03:58.730112","MEAN_MOTION":15.35483695,"ECCENTRICITY":0.00061618,"INCLINATION":97.4421,"RA_OF_ASC_NODE":232.4045,"ARG_OF_PERICENTER":19.3464,"MEAN_ANOMALY":340.8012,"EPHEMERIS_TYPE":0,"CLASSIFICATION_TYPE":"U","NORAD_CAT_ID":42991,"ELEMENT_SET_NO":999,"REV_AT_EPOCH":47123,"BSTAR":0.00042539535,"MEAN_MOTION_DOT":0.00014605,"MEAN_MOTION_DDOT":0},{"OBJECT_NAME":"SKYSAT-C6","OBJECT_ID":"2017-068F","EPOCH":"2026-04-05T08:05:54.630240","MEAN_MOTION":15.33178084,"ECCENTRICITY":0.00034643,"INCLINATION":97.4455,"RA_OF_ASC_NODE":232.3168,"ARG_OF_PERICENTER":62.5831,"MEAN_ANOMALY":297.5763,"EPHEMERIS_TYPE":0,"CLASSIFICATION_TYPE":"U","NORAD_CAT_ID":42992,"ELEMENT_SET_NO":999,"REV_AT_EPOCH":47115,"BSTAR":0.00043457739,"MEAN_MOTION_DOT":0.00013863,"MEAN_MOTION_DDOT":0},{"OBJECT_NAME":"SKYSAT-C12","OBJECT_ID":"2018-099AR","EPOCH":"2026-04-05T13:16:48.316800","MEAN_MOTION":15.46662991,"ECCENTRICITY":0.00058146,"INCLINATION":96.9335,"RA_OF_ASC_NODE":121.8073,"ARG_OF_PERICENTER":72.9033,"MEAN_ANOMALY":287.2854,"EPHEMERIS_TYPE":0,"CLASSIFICATION_TYPE":"U","NORAD_CAT_ID":43797,"ELEMENT_SET_NO":999,"REV_AT_EPOCH":41062,"BSTAR":0.00040799753,"MEAN_MOTION_DOT":0.00020312,"MEAN_MOTION_DDOT":0},{"OBJECT_NAME":"SKYSAT-C13","OBJECT_ID":"2018-099AW","EPOCH":"2026-04-05T14:12:13.683456","MEAN_MOTION":15.8271373,"ECCENTRICITY":0.0005285,"INCLINATION":96.9313,"RA_OF_ASC_NODE":143.3811,"ARG_OF_PERICENTER":131.6837,"MEAN_ANOMALY":228.4886,"EPHEMERIS_TYPE":0,"CLASSIFICATION_TYPE":"U","NORAD_CAT_ID":43802,"ELEMENT_SET_NO":999,"REV_AT_EPOCH":41141,"BSTAR":0.0006298357,"MEAN_MOTION_DOT":0.00133646,"MEAN_MOTION_DDOT":0},{"OBJECT_NAME":"FLOCK 4Q-16","OBJECT_ID":"2023-174R","EPOCH":"2026-04-05T11:54:25.749504","MEAN_MOTION":15.46280186,"ECCENTRICITY":0.0007116,"INCLINATION":97.3837,"RA_OF_ASC_NODE":182.0966,"ARG_OF_PERICENTER":75.2583,"MEAN_ANOMALY":284.9455,"EPHEMERIS_TYPE":0,"CLASSIFICATION_TYPE":"U","NORAD_CAT_ID":58271,"ELEMENT_SET_NO":999,"REV_AT_EPOCH":13433,"BSTAR":0.00055141935,"MEAN_MOTION_DOT":0.00027148,"MEAN_MOTION_DDOT":0}]
