SKYSAT-A                
1 39418U 13066C   26095.56259839  .00004832  00000+0  27929-3 0  9998
2 39418  97.3890 147.2664 0021125 201.6188 158.4154 15.12561739677503
SKYSAT-B                
1 40072U 14037D   26095.42982214  .00002577  00000+0  28857-3 0  9995
2 40072  98.3775  50.2889 0006295 142.7628 217.4024 14.87835582635148
SKYSAT-C1               
1 41601U 16040C   26095.36689778  .00012372  00000+0  36517-3 0  9998
2 41601  96.9644 131.0677 0000602 326.5790  33.5417 15.35104314546697
SKYSAT-C4               
1 41771U 16058B   26095.51913017  .00018723  00000+0  37982-3 0  9991
2 41771  96.9246 120.4257 0003020 124.5066 235.6470 15.46402302534239
SKYSAT-C5               
1 41772U 16058C   26095.56792748  .00010065  00000+0  30564-3 0  9993
2 41772  97.0554 139.4609 0002306 169.5194 190.6098 15.34256221532612
SKYSAT-C2               
1 41773U 16058D   26095.60785943  .00015130  00000+0  37493-3 0  9994
2 41773  97.0240 120.4966 0001990 351.8881   8.2333 15.40481449533872
SKYSAT-C3               
1 41774U 16058E   26095.56224039  .00026059  00000+0  47164-3 0  9992
2 41774  96.9122 129.3098 0002431 110.5152 249.6362 15.49636783534850
SKYSAT-C11              
1 42987U 17068A   26095.38748983  .00036960  00000+0  56691-3 0  9997
2 42987  97.4258 241.3020 0000549 166.1110 194.0158 15.54222813471927
SKYSAT-C10              
1 42988U 17068B   26095.62450937  .00013222  00000+0  41224-3 0  9996
2 42988  97.4392 231.8836 0001033 110.0175 250.1178 15.33368234471239
SKYSAT-C9               
1 42989U 17068C   26095.62543128  .00017309  00000+0  43761-3 0  9990
2 42989  97.4316 232.1539 0009266  45.3142 314.8858 15.39810989471586
SKYSAT-C8               
1 42990U 17068D   26095.63683429  .00014945  00000+0  43474-3 0  9996
2 42990  97.4410 231.4290 0001044  94.5672 265.5691 15.35535036471174
SKYSAT-C7               
1 42991U 17068E   26095.62776308  .00014605  00000+0  42540-3 0  9991
2 42991  97.4421 232.4045 0006161  19.3464 340.8012 15.35483695471239
SKYSAT-C6               
1 42992U 17068F   26095.33743785  .00013863  00000+0  43458-3 0  9997
2 42992  97.4455 232.3168 0003464  62.5831 297.5763 15.33178084471156
SKYSAT-C12              
1 43797U 18099AR  26095.55333700  .00020312  00000+0  40800-3 0  9997
2 43797  96.9335 121.8073 0005814  72.9033 287.2854 15.46662991410629
SKYSAT-C13              
1 43802U 18099AW  26095.59182504  .00133646  00000+0  62984-3 0  9994
2 43802  96.9313 143.3811 0005285 131.6837 228.4886 15.82713730411416
FLOCK 4Q-16             
1 58271U 23174R   26095.49613136  .00027148  00000+0  55142-3 0  9996
2 58271  97.3837 182.0966 0007116  75.2583 284.9455 15.46280186134331
